{"fetched_at":"2026-03-29T02:12:04Z","count":15717,"tles":[{"name":"COSMOS 2514 (751)","line1":"1 41330U 16008A   26087.10324796 -.00000025  00000+0  00000+0 0  9997","line2":"2 41330  65.0686 315.7909 0009016 203.3662 156.6472  2.13102591 78893","category":"Other"}]}